[{"OBJECT_NAME":"STARLINK-36051","OBJECT_ID":"2025-278C","EPOCH":"2026-03-09T12:46:51.640896","MEAN_MOTION":15.27605845,"ECCENTRICITY":0.00013901,"INCLINATION":43.0008,"RA_OF_ASC_NODE":115.3777,"ARG_OF_PERICENTER":291.3776,"MEAN_ANOMALY":68.6928,"EPHEMERIS_TYPE":0,"CLASSIFICATION_TYPE":"U","NORAD_CAT_ID":66793,"ELEMENT_SET_NO":999,"REV_AT_EPOCH":1518,"BSTAR":0.0011476926,"MEAN_MOTION_DOT":0.0003148,"MEAN_MOTION_DDOT":0},{"OBJECT_NAME":"THORAD AGENA D DEB","OBJECT_ID":"1969-082CP","EPOCH":"2026-03-09T22:51:31.947840","MEAN_MOTION":15.31252047,"ECCENTRICITY":0.00108961,"INCLINATION":69.8927,"RA_OF_ASC_NODE":265.8646,"ARG_OF_PERICENTER":335.0972,"MEAN_ANOMALY":24.9676,"EPHEMERIS_TYPE":0,"CLASSIFICATION_TYPE":"U","NORAD_CAT_ID":4133,"ELEMENT_SET_NO":999,"REV_AT_EPOCH":97550,"BSTAR":0.0018489552,"MEAN_MOTION_DOT":0.00056347,"MEAN_MOTION_DDOT":0}]
